GPS BIIR-2  (PRN 13)    
1 24876U 97035A   21343.90191305  .00000076  00000+0  00000+0 0  9993
2 24876  55.4883 163.0683 0055632  54.6941 305.8438  2.00562943178850
GPS BIIR-4  (PRN 20)    
1 26360U 00025A   21344.31505191 -.00000037  00000+0  00000+0 0  9992
2 26360  53.9081  86.6915 0054147 177.7325 208.0976  2.00559839158189
GPS BIIR-8  (PRN 16)    
1 27663U 03005A   21344.55013161 -.00000055  00000+0  00000+0 0  9997
2 27663  55.6454 280.5606 0123265  38.5618 134.2233  2.00575668138225
GPS BIIR-9  (PRN 21)    
1 27704U 03010A   21344.53147596 -.00000102  00000+0  00000+0 0  9990
2 27704  54.9456  30.9646 0245735 299.8299  78.7265  2.00571342137029
GPS BIIR-10 (PRN 22)    
1 28129U 03058A   21344.09244958 -.00000030  00000+0  00000+0 0  9995
2 28129  53.7197  89.3308 0069649 308.8399  50.5353  2.00564525131691
GPS BIIR-11 (PRN 19)    
1 28190U 04009A   21344.35777419 -.00000074  00000+0  00000+0 0  9990
2 28190  56.1078 341.4965 0087014 114.3172  81.3903  2.00564387129854
GPS BIIR-13 (PRN 02)    
1 28474U 04045A   21344.38177377 -.00000101  00000+0  00000+0 0  9996
2 28474  55.2765  31.0397 0207907 275.6136 205.1075  2.00566034125346
GPS BIIRM-1 (PRN 17)    
1 28874U 05038A   21344.35338272 -.00000072  00000+0  00000+0 0  9990
2 28874  56.1823 338.9213 0139838 272.5589 302.5938  2.00558927118744
GPS BIIRM-2 (PRN 31)    
1 29486U 06042A   21344.54515920  .00000013  00000+0  00000+0 0  9998
2 29486  54.7389 216.7901 0103422  18.6900 251.3050  2.00565254111300
GPS BIIRM-3 (PRN 12)    
1 29601U 06052A   21344.12085681 -.00000050  00000+0  00000+0 0  9990
2 29601  55.6467 279.5086 0082229  69.9436 290.9515  2.00567547110313
GPS BIIRM-4 (PRN 15)    
1 32260U 07047A   21343.92607461  .00000069  00000+0  00000+0 0  9992
2 32260  53.2685 148.3981 0137195  60.3649 300.9907  2.00558540103711
GPS BIIRM-5 (PRN 29)    
1 32384U 07062A   21344.18884829 -.00000072  00000+0  00000+0 0  9995
2 32384  56.2954 339.6648 0015898 139.5858 182.6516  2.00551732102414
GPS BIIRM-6 (PRN 07)    
1 32711U 08012A   21343.84539304  .00000014  00000+0  00000+0 0  9997
2 32711  54.4952 215.7966 0155046 228.7997 129.9297  2.00558325100657
GPS BIIRM-8 (PRN 05)    
1 35752U 09043A   21344.31650514 -.00000021  00000+0  00000+0 0  9999
2 35752  54.9308  93.1533 0057543  57.1661 299.8061  2.00568612 90269
GPS BIIF-1  (PRN 25)    
1 36585U 10022A   21344.48099560 -.00000054  00000+0  00000+0 0  9995
2 36585  54.9249 275.1449 0099857  54.5231 179.4609  2.00555492 84507
GPS BIIF-2  (PRN 01)    
1 37753U 11036A   21344.49374153 -.00000099  00000+0  00000+0 0  9993
2 37753  56.5137  36.0695 0109529  49.9374 276.5845  2.00564159 76186
GPS BIIF-3  (PRN 24)    
1 38833U 12053A   21344.02499481  .00000020  00000+0  00000+0 0  9997
2 38833  53.5475 211.1144 0119620  44.4069 316.6226  2.00559721 66342
GPS BIIF-4  (PRN 27)    
1 39166U 13023A   21344.38500587 -.00000071  00000+0  00000+0 0  9991
2 39166  55.8176 335.3668 0096796  34.7069 325.9313  2.00566921 62790
GPS BIIF-5  (PRN 30)    
1 39533U 14008A   21344.38297109  .00000012  00000+0  00000+0 0  9990
2 39533  53.6458 216.5867 0054409 204.5787 155.2362  2.00570680 56593
GPS BIIF-6  (PRN 06)    
1 39741U 14026A   21344.16205541 -.00000098  00000+0  00000+0 0  9991
2 39741  56.4790  35.6090 0026948 298.3316  61.4483  2.00569249 55442
GPS BIIF-7  (PRN 09)    
1 40105U 14045A   21344.25512365  .00000078  00000+0  00000+0 0  9990
2 40105  54.6550 154.3587 0021516 107.0682 253.1738  2.00564916 52985
GPS BIIF-8  (PRN 03)    
1 40294U 14068A   21344.12653787 -.00000014  00000+0  00000+0 0  9995
2 40294  55.6763  95.4238 0036705  55.1531 305.1796  2.00558141 52111
GPS BIIF-9  (PRN 26)    
1 40534U 15013A   21344.25945941 -.00000052  00000+0  00000+0 0  9995
2 40534  53.8284 272.5331 0065222  16.6947 343.5393  2.00563966 48730
GPS BIIF-10 (PRN 08)    
1 40730U 15033A   21344.42104589 -.00000071  00000+0  00000+0 0  9990
2 40730  55.3209 334.2838 0069091   1.6062 358.4243  2.00561848 46903
GPS BIIF-11 (PRN 10)    
1 41019U 15062A   21344.47148871 -.00000016  00000+0  00000+0 0  9999
2 41019  55.6674  95.2491 0074369 214.8108 144.6908  2.00563139 44743
GPS BIIF-12 (PRN 32)    
1 41328U 16007A   21344.06714661  .00000076  00000+0  00000+0 0  9998
2 41328  54.8776 154.9908 0054314 224.9302 134.6359  2.00554493 42742
GPS BIII-1  (PRN 04)    
1 43873U 18109A   21344.30323813  .00000080  00000+0  00000+0 0  9997
2 43873  55.0583 157.3596 0016051 188.8520 235.7245  2.00563611 21986
GPS BIII-2  (PRN 18)    
1 44506U 19056A   21344.50583821 -.00000100  00000+0  00000+0 0  9996
2 44506  55.5840  36.5731 0020917 182.6275 290.3120  2.00568223 16982
GPS BIII-3  (PRN 23)    
1 45854U 20041A   21344.36867799 -.00000019  00000+0  00000+0 0  9991
2 45854  55.3835  93.8484 0018702 169.8532 145.2350  2.00561464 10947
GPS BIII-4  (PRN 14)    
1 46826U 20078A   21344.28570946 -.00000053  00000+0  00000+0 0  9995
2 46826  54.6968 277.7691 0012328 187.7537  37.9598  2.00566865  8411
